NORAD_CAT_ID,OBJECT_NAME,OBJECT_TYPE,EPOCH,MEAN_MOTION,ECCENTRICITY,INCLINATION,RA_OF_ASC_NODE,ARG_OF_PERICENTER,MEAN_ANOMALY,BSTAR,MEAN_MOTION_DOT,MEAN_MOTION_DDOT,TLE_LINE0,TLE_LINE1,TLE_LINE2,SEMIMAJOR_AXIS,PERIOD,APOGEE,PERIGEE,DECAYED
50806.0,STARLINK-3335,PAYLOAD,2022-10-04 00:22:23,15.08850749,0.0002094,53.2164,22.5822,47.8768,312.2402,0.00040983,6.242e-05,0.0,0 STARLINK-3335,1 50806U 22001D   22277.01554415  .00006242  00000-0  40983-3 0  9990,2 50806  53.2164  22.5822 0002094  47.8768 312.2402 15.08850749 42702,6917.848000000001,95.437,541.161,538.264,0.0
50806.0,STARLINK-3335,PAYLOAD,2022-10-04 13:05:28,15.08842972,0.0001816,53.2167,20.2034,39.214,320.8983,0.00024042,3.541e-05,0.0,0 STARLINK-3335,1 50806U 22001D   22277.54546373  .00003541  00000-0  24042-3 0  9999,2 50806  53.2167  20.2034 0001816  39.2140 320.8983 15.08842972 41511,6917.871,95.437,540.993,538.48,0.0
50806.0,STARLINK-3335,PAYLOAD,2022-10-04 19:27:01,15.0883212,0.0002214,53.2166,19.0138,37.9312,322.1836,0.00015379,2.1600000000000007e-05,0.0,0 STARLINK-3335,1 50806U 22001D   22277.81042826  .00002160  00000-0  15379-3 0  9992,2 50806  53.2166  19.0138 0002214  37.9312 322.1836 15.08832120 41550,6917.904,95.438,541.3009999999998,538.238,0.0
50806.0,STARLINK-3335,PAYLOAD,2022-10-05 06:34:43,15.08832287,0.0001827,53.2161,16.9316,41.0687,319.0442,0.00014439,2.01e-05,0.0,0 STARLINK-3335,1 50806U 22001D   22278.27411130  .00002010  00000-0  14439-3 0  9991,2 50806  53.2161  16.9316 0001827  41.0687 319.0442 15.08832287 42899,6917.904,95.438,541.033,538.505,0.0
50806.0,STARLINK-3335,PAYLOAD,2022-10-05 12:56:15,15.08839372,0.000193,53.2165,15.7429,39.8001,320.3132,0.00013177,1.810000000000001e-05,0.0,0 STARLINK-3335,1 50806U 22001D   22278.53907071  .00001810  00000-0  13177-3 0  9999,2 50806  53.2165  15.7429 0001930  39.8001 320.3132 15.08839372 41662,6917.882,95.438,541.082,538.4119999999998,0.0
50806.0,STARLINK-3335,PAYLOAD,2022-10-06 12:47:03,15.08841062,0.0001996999999999,53.2178,11.2836,35.1422,324.9702,0.00025283,3.738e-05,0.0,0 STARLINK-3335,1 50806U 22001D   22279.53267490  .00003738  00000-0  25283-3 0  9996,2 50806  53.2178  11.2836 0001997  35.1422 324.9702 15.08841062 41817,6917.877,95.437,541.124,538.361,0.0
50806.0,STARLINK-3335,PAYLOAD,2022-10-06 17:33:12,15.08844534,0.0002015,53.2176,10.3902,38.9127,321.201,0.00034206,5.161e-05,0.0,0 STARLINK-3335,1 50806U 22001D   22279.73139426  .00005161  00000-0  34206-3 0  9992,2 50806  53.2176  10.3902 0002015  38.9127 321.2010 15.08844534 43118,6917.8669999999975,95.437,541.125,538.3380000000002,0.0
50806.0,STARLINK-3335,PAYLOAD,2022-10-07 12:37:50,15.08844875,0.0002034,53.2176,6.8223,41.1614,318.9532,0.00020293,2.943e-05,0.0,0 STARLINK-3335,1 50806U 22001D   22280.52627373  .00002943  00000-0  20293-3 0  9990,2 50806  53.2176   6.8223 0002034  41.1614 318.9532 15.08844875 41963,6917.865,95.437,541.138,538.323,0.0
50806.0,STARLINK-3335,PAYLOAD,2022-10-07 15:48:36,15.08842779,0.0002024,53.2179,6.2279,41.887,318.2277,0.00013165,1.808e-05,0.0,0 STARLINK-3335,1 50806U 22001D   22280.65875405  .00001808  00000-0  13165-3 0  9994,2 50806  53.2179   6.2279 0002024  41.8870 318.2277 15.08842779 41983,6917.871999999999,95.437,541.137,538.337,0.0
50806.0,STARLINK-3335,PAYLOAD,2022-10-08 12:28:37,15.08833827,0.0001955,53.2182,2.362,37.9422,322.1707,-1.4824e-06,-3.12e-06,0.0,0 STARLINK-3335,1 50806U 22001D   22281.51988030 -.00000312  00000-0 -14824-5 0  9995,2 50806  53.2182   2.3620 0001955  37.9422 322.1707 15.08833827 43387,6917.899,95.438,541.117,538.4119999999998,0.0
50806.0,STARLINK-3335,PAYLOAD,2022-10-08 17:14:47,15.088334,0.0001966999999999,53.2175,1.4695,35.9621,324.1503,-5.8284e-06,-3.81e-06,0.0,0 STARLINK-3335,1 50806U 22001D   22281.71860129 -.00000381  00000-0 -58284-5 0  9999,2 50806  53.2175   1.4695 0001967  35.9621 324.1503 15.08833400 42149,6917.901,95.438,541.126,538.405,0.0
50806.0,STARLINK-3335,PAYLOAD,2022-10-09 12:19:24,15.08843513,0.0001978,53.2195,357.905,43.89,316.2249,0.00017661,2.524e-05,0.0,0 STARLINK-3335,1 50806U 22001D   22282.51347890  .00002524  00000-0  17661-3 0  9994,2 50806  53.2195 357.9050 0001978  43.8900 316.2249 15.08843513 42263,6917.87,95.437,541.1030000000002,538.366,0.0
50806.0,STARLINK-3335,PAYLOAD,2022-10-09 15:30:11,15.08838352,0.0002229,53.2178,357.3072,37.2065,322.9082,4.7827e-05,4.73e-06,0.0,0 STARLINK-3335,1 50806U 22001D   22282.64596139  .00000473  00000-0  47827-4 0  9999,2 50806  53.2178 357.3072 0002229  37.2065 322.9082 15.08838352 42287,6917.885,95.438,541.2919999999998,538.2080000000002,0.0
50806.0,STARLINK-3335,PAYLOAD,2022-10-10 05:48:39,15.08835174,0.000206,53.219,354.6317,38.5427,321.5712,0.00010189,1.334e-05,0.0,0 STARLINK-3335,1 50806U 22001D   22283.24212502  .00001334  00000-0  10189-3 0  9992,2 50806  53.2190 354.6317 0002060  38.5427 321.5712 15.08835174 43647,6917.895,95.438,541.185,538.335,0.0
50806.0,STARLINK-3335,PAYLOAD,2022-10-10 12:10:11,15.08841954,0.0002053,53.2184,353.4414,43.2717,316.8436,0.00013823,1.913e-05,0.0,0 STARLINK-3335,1 50806U 22001D   22283.50708023  .00001913  00000-0  13823-3 0  9990,2 50806  53.2184 353.4414 0002053  43.2717 316.8436 15.08841954 42419,6917.874,95.437,541.16,538.319,0.0
50806.0,STARLINK-3335,PAYLOAD,2022-10-11 05:39:26,15.08837317,0.0002251,53.2176,350.1696,42.3809,317.7357,6.9049e-05,8.11e-06,0.0,0 STARLINK-3335,1 50806U 22001D   22284.23572587  .00000811  00000-0  69049-4 0  9993,2 50806  53.2176 350.1696 0002251  42.3809 317.7357 15.08837317 43790,6917.889,95.438,541.311,538.196,0.0
50806.0,STARLINK-3335,PAYLOAD,2022-10-11 10:25:36,15.08837394,0.0002194,53.2183,349.2785,40.1485,319.9669,-4.9055e-05,-1.069e-05,0.0,0 STARLINK-3335,1 50806U 22001D   22284.43444975 -.00001069  00000-0 -49055-4 0  9997,2 50806  53.2183 349.2785 0002194  40.1485 319.9669 15.08837394 42556,6917.888000000001,95.438,541.271,538.236,0.0
50806.0,STARLINK-3335,PAYLOAD,2022-10-12 03:54:51,15.08828392,0.0002263,53.2186,346.0077,46.4589,313.6591,-4.017e-05,-9.27e-06,0.0,0 STARLINK-3335,1 50806U 22001D   22285.16309869 -.00000927  00000-0 -40170-4 0  9991,2 50806  53.2186 346.0077 0002263  46.4589 313.6591 15.08828392 43935,6917.916,95.438,541.346,538.215,0.0
50806.0,STARLINK-3335,PAYLOAD,2022-10-12 11:51:47,15.0883141,0.0002185,53.2177,344.5202,42.6038,317.5123,-6.599399999999999e-05,-1.338e-05,0.0,0 STARLINK-3335,1 50806U 22001D   22285.49429913 -.00001338  00000-0 -65994-4 0  9998,2 50806  53.2177 344.5202 0002185  42.6038 317.5123 15.08831410 42712,6917.906999999997,95.438,541.283,538.26,0.0
50806.0,STARLINK-3335,PAYLOAD,2022-10-13 11:42:34,15.08835122,0.0002254999999999,53.2178,340.0599,41.5902,318.5262,0.00011314,1.513e-05,0.0,0 STARLINK-3335,1 50806U 22001D   22286.48789431  .00001513  00000-0  11314-3 0  9991,2 50806  53.2178 340.0599 0002255  41.5902 318.5262 15.08835122 42864,6917.895,95.438,541.32,538.2,0.0
50806.0,STARLINK-3335,PAYLOAD,2022-10-14 11:33:21,15.08833527,0.000224,53.2177,335.5993,39.7681,320.3475,8.175399999999999e-05,1.013e-05,0.0,0 STARLINK-3335,1 50806U 22001D   22287.48149788  .00001013  00000-0  81754-4 0  9998,2 50806  53.2177 335.5993 0002240  39.7681 320.3475 15.08833527 43019,6917.9,95.438,541.315,538.216,0.0
50806.0,STARLINK-3335,PAYLOAD,2022-10-15 11:24:07,15.08849484,0.0002304,53.2168,331.1398,35.567,324.5475,8.1068e-05,1.002e-05,0.0,0 STARLINK-3335,1 50806U 22001D   22288.47508356  .00001002  00000-0  81068-4 0  9994,2 50806  53.2168 331.1398 0002304  35.5670 324.5475 15.08849484 43164,6917.851,95.437,541.31,538.123,0.0
50806.0,STARLINK-3335,PAYLOAD,2022-10-16 01:42:36,15.08832849,0.0002443,53.2166,328.4637,34.6938,325.4213,-2.1907e-05,-6.37e-06,0.0,0 STARLINK-3335,1 50806U 22001D   22289.07125663 -.00000637  00000-0 -21907-4 0  9998,2 50806  53.2166 328.4637 0002443  34.6938 325.4213 15.08832849 44526,6917.901999999999,95.438,541.457,538.077,0.0
50806.0,STARLINK-3335,PAYLOAD,2022-10-16 11:14:55,15.08837318,0.0002251,53.2167,326.6790000000001,35.0577,325.0563,1.4837e-05,-5.2e-07,0.0,0 STARLINK-3335,1 50806U 22001D   22289.46869314 -.00000052  00000-0  14837-4 0  9993,2 50806  53.2167 326.6790 0002251  35.0577 325.0563 15.08837318 43314,6917.889,95.438,541.311,538.196,0.0
50806.0,STARLINK-3335,PAYLOAD,2022-10-17 12:41:05,15.08837441,0.0002174,53.2168,321.9209,37.8375,322.277,-4.316600000000001e-05,-9.75e-06,0.0,0 STARLINK-3335,1 50806U 22001D   22290.52853436 -.00000975  00000-0 -43166-4 0  9992,2 50806  53.2168 321.9209 0002174  37.8375 322.2770 15.08837441 43471,6917.888000000001,95.438,541.257,538.249,0.0
50806.0,STARLINK-3335,PAYLOAD,2022-10-18 09:21:06,15.08830031,0.0002118,53.2165,318.0544,32.3206,327.7915,-1.534e-05,-5.32e-06,0.0,0 STARLINK-3335,1 50806U 22001D   22291.38966229 -.00000532  00000-0 -15340-4 0  9994,2 50806  53.2165 318.0544 0002118  32.3206 327.7915 15.08830031 44872,6917.911,95.438,541.241,538.311,0.0
50806.0,STARLINK-3335,PAYLOAD,2022-10-18 18:53:25,15.08836464,0.0002183,53.2164,316.27,31.9601,328.1524,2.0844e-05,4.3e-07,0.0,0 STARLINK-3335,1 50806U 22001D   22291.78709876  .00000043  00000-0  20844-4 0  9991,2 50806  53.2164 316.2700 0002183  31.9601 328.1524 15.08836464 44935,6917.891,95.438,541.266,538.246,0.0
50806.0,STARLINK-3335,PAYLOAD,2022-10-19 09:11:53,15.08845127,0.0002188,53.2172,313.5941,32.9399,327.1729,-0.00020419,-3.537e-05,0.0,0 STARLINK-3335,1 50806U 22001D   22292.38326305 -.00003537  00000-0 -20419-3 0  9990,2 50806  53.2172 313.5941 0002188  32.9399 327.1729 15.08845127 43752,6917.865,95.437,541.243,538.216,0.0
50806.0,STARLINK-3335,PAYLOAD,2022-10-20 05:51:54,15.08836922,0.0002363,53.217,309.728,37.4953,322.6204,0.00015036,2.105e-05,0.0,0 STARLINK-3335,1 50806U 22001D   22293.24438181  .00002105  00000-0  15036-3 0  9999,2 50806  53.2170 309.7280 0002363  37.4953 322.6204 15.08836922 45151,6917.89,95.438,541.389,538.12,0.0
